[{"OBJECT_NAME":"STARLINK-31391","OBJECT_ID":"2024-064J","EPOCH":"2026-03-09T09:26:43.608192","MEAN_MOTION":15.27576019,"ECCENTRICITY":0.00011068,"INCLINATION":42.9991,"RA_OF_ASC_NODE":57.5725,"ARG_OF_PERICENTER":299.6128,"MEAN_ANOMALY":60.4613,"EPHEMERIS_TYPE":0,"CLASSIFICATION_TYPE":"U","NORAD_CAT_ID":59406,"ELEMENT_SET_NO":999,"REV_AT_EPOCH":10918,"BSTAR":0.00016572488,"MEAN_MOTION_DOT":4.301e-5,"MEAN_MOTION_DDOT":0},{"OBJECT_NAME":"FENGYUN 1C DEB","OBJECT_ID":"1999-025BRA","EPOCH":"2026-03-07T21:38:03.570144","MEAN_MOTION":15.14550758,"ECCENTRICITY":0.01045185,"INCLINATION":98.8762,"RA_OF_ASC_NODE":52.6466,"ARG_OF_PERICENTER":91.2586,"MEAN_ANOMALY":270.0618,"EPHEMERIS_TYPE":0,"CLASSIFICATION_TYPE":"U","NORAD_CAT_ID":31346,"ELEMENT_SET_NO":999,"REV_AT_EPOCH":773,"BSTAR":0.0014203897,"MEAN_MOTION_DOT":0.00030047,"MEAN_MOTION_DDOT":0}]
